OBJECT_NAME,OBJECT_ID,EPOCH,MEAN_MOTION,ECCENTRICITY,INCLINATION,RA_OF_ASC_NODE,ARG_OF_PERICENTER,MEAN_ANOMALY,EPHEMERIS_TYPE,CLASSIFICATION_TYPE,NORAD_CAT_ID,ELEMENT_SET_NO,REV_AT_EPOCH,BSTAR,MEAN_MOTION_DOT,MEAN_MOTION_DDOT
ONEWEB-0473,2022-012AH,2026-06-10T14:39:13.761216,13.10373719,.00018147,87.8837,37.5867,77.5085,282.6245,0,U,51653,999,20844,-.16724797E-2,-.571E-5,0
ONEWEB-0474,2022-012AJ,2026-06-10T14:27:16.363872,13.10371316,.00017079,87.8844,37.5717,72.2455,287.8858,0,U,51654,999,20843,-.17213249E-2,-.588E-5,0
ONEWEB-0475,2022-012AK,2026-06-10T14:46:53.583744,13.17648025,.00016948,87.9135,7.1801,66.3224,293.8085,0,U,51655,999,21282,.12738173E-3,.62E-6,0
ONEWEB-0490,2022-138A,2026-06-10T07:27:56.394432,13.19724687,.00016632,87.9172,306.3366,98.5890,261.5432,0,U,54113,999,17592,-.5165549E-4,-.8E-7,0
ONEWEB-0492,2022-138B,2026-06-10T15:21:03.109248,13.19726222,.00017235,87.9164,306.2730,105.1049,255.0275,0,U,54114,999,17597,.65627618E-4,.39E-6,0
ONEWEB-0495,2022-138C,2026-06-10T07:32:29.307840,13.19724486,.00011573,87.9164,306.3404,98.2109,261.9155,0,U,54115,999,17591,.23969003E-4,.23E-6,0
ONEWEB-0497,2022-138D,2026-06-10T15:07:23.390976,13.19724608,.00017529,87.9168,306.2691,98.6856,261.4475,0,U,54116,999,17594,.3452111E-4,.27E-6,0
ONEWEB-0499,2022-138E,2026-06-10T07:26:48.915168,13.19726277,.00016079,87.9163,306.3426,93.5207,266.6110,0,U,54117,999,17591,-.5892908E-5,.11E-6,0
ONEWEB-0500,2022-138F,2026-06-10T03:51:51.295104,13.19724032,.0001888,87.9172,306.3657,100.1923,259.9423,0,U,54118,999,17590,.30758E-4,.25E-6,0
ONEWEB-0501,2022-138G,2026-06-10T15:30:07.283232,13.19723533,.00013929,87.9171,306.2689,96.7587,263.3704,0,U,54119,999,17594,.15791139E-3,.76E-6,0
ONEWEB-0502,2022-138H,2026-06-10T15:09:38.931840,13.19724332,.00016178,87.9172,306.2605,91.9766,268.1552,0,U,54120,999,17596,.46143895E-4,.31E-6,0
ONEWEB-0503,2022-138J,2026-06-10T07:37:02.210016,13.19724479,.00019642,87.9174,306.3288,90.7281,269.4077,0,U,54121,999,17591,.75067812E-4,.43E-6,0
ONEWEB-0504,2022-138K,2026-06-10T03:40:29.781408,13.19724242,.0001657,87.9172,306.3667,91.6504,268.4819,0,U,54122,999,17590,-.46561011E-4,-.6E-7,0
ONEWEB-0505,2022-138L,2026-06-10T03:35:57.403680,13.19725456,.0001412,87.9170,306.3686,91.7362,268.3933,0,U,54123,999,17588,-.44886131E-4,-.5E-7,0
ONEWEB-0506,2022-138M,2026-06-10T15:43:45.879168,13.19723732,.00015061,87.9172,306.2645,95.9765,264.1540,0,U,54124,999,17594,.25297635E-3,.114E-5,0
ONEWEB-0507,2022-138N,2026-06-10T03:29:07.424448,13.19724826,.00016182,87.9163,306.3790,98.5152,261.6164,0,U,54125,999,17592,.10502155E-3,.55E-6,0
ONEWEB-0508,2022-138P,2026-06-09T21:57:01.664640,13.19724351,.00014027,87.9163,306.4244,102.8741,257.2549,0,U,54126,999,17587,.55733133E-4,.35E-6,0
ONEWEB-0509,2022-138Q,2026-06-10T15:32:22.477632,13.19719884,.00016652,87.9176,306.2672,97.8020,262.3302,0,U,54127,999,17594,.12802999E-3,.64E-6,0
ONEWEB-0510,2022-138R,2026-06-10T14:48:23.586624,13.20772581,.00023954,87.9190,275.7451,98.5092,261.6313,0,U,54128,999,17841,-.12285596E-3,-.37E-6,0
ONEWEB-0511,2022-138S,2026-06-10T15:27:52.365312,13.19726198,.00018052,87.9171,306.2708,88.1460,271.9879,0,U,54129,999,17597,.16715327E-3,.8E-6,0
ONEWEB-0512,2022-138T,2026-06-10T15:16:28.983648,13.19724952,.00015514,87.9163,306.2779,90.5359,269.5951,0,U,54130,999,17594,.16034233E-3,.77E-6,0
ONEWEB-0513,2022-138U,2026-06-10T15:28:27.197472,13.20268754,.00013753,87.9170,306.2210,67.3746,292.7532,0,U,54131,999,17585,.60863179E-4,.38E-6,0
ONEWEB-0514,2022-138V,2026-06-10T15:39:13.777920,13.19724769,.00019762,87.9174,306.2678,97.0147,263.1211,0,U,54132,999,17596,.13992078E-3,.69E-6,0
ONEWEB-0515,2022-138W,2026-06-10T14:28:58.651104,13.20770441,.00025811,87.9196,275.7420,115.5674,244.5727,0,U,54133,999,17843,-.9023719E-5,.9E-7,0
ONEWEB-0516,2022-138X,2026-06-10T15:02:49.850304,13.19725044,.00017427,87.9163,306.2799,101.3053,258.8276,0,U,54134,999,17596,.52105831E-4,.34E-6,0
ONEWEB-0517,2022-138Y,2026-06-10T03:38:12.464160,13.19724058,.00020033,87.9168,306.3665,89.6098,270.5264,0,U,54135,999,17590,.72596218E-4,.42E-6,0
ONEWEB-0518,2022-138Z,2026-06-10T07:43:53.785920,13.19727466,.00017442,87.9163,306.3426,103.5378,256.5950,0,U,54136,999,17592,.98405505E-4,.52E-6,0
ONEWEB-0519,2022-138AA,2026-06-10T08:20:16.350144,13.19726333,.00019429,87.9176,306.3280,92.0491,268.0864,0,U,54137,999,17593,.24587543E-3,.111E-5,0
ONEWEB-0520,2022-138AB,2026-06-10T07:21:07.233408,13.19724714,.00015587,87.9172,306.3366,97.5270,262.6040,0,U,54138,999,17591,.78656017E-4,.44E-6,0
ONEWEB-0521,2022-138AC,2026-06-10T15:25:35.078304,13.19725112,.00019973,87.9175,306.2581,92.4985,267.6376,0,U,54139,999,17590,.15559133E-3,.75E-6,0
