ONEWEB-0473             
1 51653U 22012AH  26161.61057594 -.00000571  00000+0 -16725-2 0  9997
2 51653  87.8837  37.5867 0001814  77.5085 282.6245 13.10373719208447
ONEWEB-0474             
1 51654U 22012AJ  26161.60227273 -.00000588  00000+0 -17213-2 0  9991
2 51654  87.8844  37.5717 0001707  72.2455 287.8858 13.10371316208431
ONEWEB-0475             
1 51655U 22012AK  26161.61589796  .00000062  00000+0  12738-3 0  9997
2 51655  87.9135   7.1801 0001694  66.3224 293.8085 13.17648025212824
ONEWEB-0490             
1 54113U 22138A   26161.31106938 -.00000008  00000+0 -51655-4 0  9992
2 54113  87.9172 306.3366 0001663  98.5890 261.5432 13.19724687175927
ONEWEB-0492             
1 54114U 22138B   26161.63961932  .00000039  00000+0  65628-4 0  9998
2 54114  87.9164 306.2730 0001723 105.1049 255.0275 13.19726222175976
ONEWEB-0495             
1 54115U 22138C   26161.31422810  .00000023  00000+0  23969-4 0  9996
2 54115  87.9164 306.3404 0001157  98.2109 261.9155 13.19724486175913
ONEWEB-0497             
1 54116U 22138D   26161.63013184  .00000027  00000+0  34521-4 0  9992
2 54116  87.9168 306.2691 0001752  98.6856 261.4475 13.19724608175948
ONEWEB-0499             
1 54117U 22138E   26161.31028837  .00000011  00000+0 -58929-5 0  9992
2 54117  87.9163 306.3426 0001607  93.5207 266.6110 13.19726277175918
ONEWEB-0500             
1 54118U 22138F   26161.16101036  .00000025  00000+0  30758-4 0  9992
2 54118  87.9172 306.3657 0001888 100.1923 259.9423 13.19724032175904
ONEWEB-0501             
1 54119U 22138G   26161.64591763  .00000076  00000+0  15791-3 0  9991
2 54119  87.9171 306.2689 0001392  96.7587 263.3704 13.19723533175944
ONEWEB-0502             
1 54120U 22138H   26161.63170060  .00000031  00000+0  46144-4 0  9993
2 54120  87.9172 306.2605 0001617  91.9766 268.1552 13.19724332175965
ONEWEB-0503             
1 54121U 22138J   26161.31738669  .00000043  00000+0  75068-4 0  9994
2 54121  87.9174 306.3288 0001964  90.7281 269.4077 13.19724479175913
ONEWEB-0504             
1 54122U 22138K   26161.15312247 -.00000006  00000+0 -46561-4 0  9994
2 54122  87.9172 306.3667 0001657  91.6504 268.4819 13.19724242175900
ONEWEB-0505             
1 54123U 22138L   26161.14996995 -.00000005  00000+0 -44886-4 0  9999
2 54123  87.9170 306.3686 0001412  91.7362 268.3933 13.19725456175883
ONEWEB-0506             
1 54124U 22138M   26161.65539212  .00000114  00000+0  25298-3 0  9995
2 54124  87.9172 306.2645 0001506  95.9765 264.1540 13.19723732175947
ONEWEB-0507             
1 54125U 22138N   26161.14522482  .00000055  00000+0  10502-3 0  9997
2 54125  87.9163 306.3790 0001618  98.5152 261.6164 13.19724826175920
ONEWEB-0508             
1 54126U 22138P   26160.91460260  .00000035  00000+0  55733-4 0  9991
2 54126  87.9163 306.4244 0001402 102.8741 257.2549 13.19724351175875
ONEWEB-0509             
1 54127U 22138Q   26161.64748238  .00000064  00000+0  12803-3 0  9999
2 54127  87.9176 306.2672 0001665  97.8020 262.3302 13.19719884175944
ONEWEB-0510             
1 54128U 22138R   26161.61693966 -.00000037  00000+0 -12286-3 0  9991
2 54128  87.9190 275.7451 0002395  98.5092 261.6313 13.20772581178418
ONEWEB-0511             
1 54129U 22138S   26161.64435608  .00000080  00000+0  16715-3 0  9999
2 54129  87.9171 306.2708 0001805  88.1460 271.9879 13.19726198175972
ONEWEB-0512             
1 54130U 22138T   26161.63644657  .00000077  00000+0  16034-3 0  9996
2 54130  87.9163 306.2779 0001551  90.5359 269.5951 13.19724952175942
ONEWEB-0513             
1 54131U 22138U   26161.64475923  .00000038  00000+0  60863-4 0  9993
2 54131  87.9170 306.2210 0001375  67.3746 292.7532 13.20268754175855
ONEWEB-0514             
1 54132U 22138V   26161.65224280  .00000069  00000+0  13992-3 0  9997
2 54132  87.9174 306.2678 0001976  97.0147 263.1211 13.19724769175969
ONEWEB-0515             
1 54133U 22138W   26161.60345661  .00000009  00000+0 -90237-5 0  9994
2 54133  87.9196 275.7420 0002581 115.5674 244.5727 13.20770441178433
ONEWEB-0516             
1 54134U 22138X   26161.62696586  .00000034  00000+0  52106-4 0  9991
2 54134  87.9163 306.2799 0001742 101.3053 258.8276 13.19725044175968
ONEWEB-0517             
1 54135U 22138Y   26161.15153315  .00000042  00000+0  72596-4 0  9992
2 54135  87.9168 306.3665 0002003  89.6098 270.5264 13.19724058175901
ONEWEB-0518             
1 54136U 22138Z   26161.32215030  .00000052  00000+0  98406-4 0  9994
2 54136  87.9163 306.3426 0001744 103.5378 256.5950 13.19727466175924
ONEWEB-0519             
1 54137U 22138AA  26161.34741146  .00000111  00000+0  24588-3 0  9994
2 54137  87.9176 306.3280 0001942  92.0491 268.0864 13.19726333175930
ONEWEB-0520             
1 54138U 22138AB  26161.30633372  .00000044  00000+0  78656-4 0  9993
2 54138  87.9172 306.3366 0001558  97.5270 262.6040 13.19724714175915
ONEWEB-0521             
1 54139U 22138AC  26161.64276711  .00000075  00000+0  15559-3 0  9997
2 54139  87.9175 306.2581 0001997  92.4985 267.6376 13.19725112175900
